NORAD_CAT_ID,OBJECT_NAME,OBJECT_TYPE,EPOCH,MEAN_MOTION,ECCENTRICITY,INCLINATION,RA_OF_ASC_NODE,ARG_OF_PERICENTER,MEAN_ANOMALY,BSTAR,MEAN_MOTION_DOT,MEAN_MOTION_DDOT,TLE_LINE0,TLE_LINE1,TLE_LINE2,SEMIMAJOR_AXIS,PERIOD,APOGEE,PERIGEE,DECAYED
51130.0,STARLINK-3395,PAYLOAD,2022-11-11 11:58:52,15.08818548,0.0002809,53.2166,349.8463,33.8618,326.2553,6.1621e-05,6.92e-06,0.0,0 STARLINK-3395,1 51130U 22005AC  22315.49921997  .00000692  00000-0  61621-4 0  9999,2 51130  53.2166 349.8463 0002809  33.8618 326.2553 15.08818548 45429,6917.946,95.439,541.754,537.868,0.0
51130.0,STARLINK-3395,PAYLOAD,2022-11-11 19:55:48,15.08820608,0.0002795,53.2166,348.3597,35.396,324.7217,0.0004462,6.817e-05,0.0,0 STARLINK-3395,1 51130U 22005AC  22315.83042647  .00006817  00000-0  44620-3 0  9997,2 51130  53.2166 348.3597 0002795  35.3960 324.7217 15.08820608 46591,6917.94,95.439,541.738,537.871,0.0
51130.0,STARLINK-3395,PAYLOAD,2022-11-12 11:49:39,15.08853556,0.0003035,53.2162,345.3858,34.3875,325.7313,0.0007967,0.00012419,0.0,0 STARLINK-3395,1 51130U 22005AC  22316.49282125  .00012419  00000-0  79670-3 0  9995,2 51130  53.2162 345.3858 0003035  34.3875 325.7313 15.08853556 46693,6917.839,95.437,541.804,537.604,0.0
51130.0,STARLINK-3395,PAYLOAD,2022-11-12 13:25:02,15.0885796,0.0003051,53.2161,345.0883,34.6905,325.4286,0.00094636,0.00014813,0.0,0 STARLINK-3395,1 51130U 22005AC  22316.55906102  .00014813  00000-0  94636-3 0  9999,2 51130  53.2161 345.0883 0003051  34.6905 325.4286 15.08857960 45588,6917.825,95.436,541.8009999999998,537.58,0.0
51130.0,STARLINK-3395,PAYLOAD,2022-11-13 11:40:25,15.08857405,0.000313,53.2162,340.9252,31.5794,328.5385,0.00011768,1.586e-05,0.0,0 STARLINK-3395,1 51130U 22005AC  22317.48640987  .00001586  00000-0  11768-3 0  9996,2 51130  53.2162 340.9252 0003130  31.5794 328.5385 15.08857405 46841,6917.8269999999975,95.436,541.857,537.5269999999998,0.0
51130.0,STARLINK-3395,PAYLOAD,2022-11-13 13:15:49,15.08844562,0.0003256,53.2165,340.6277,34.5606,325.5597,-0.0003109,-5.234e-05,0.0,0 STARLINK-3395,1 51130U 22005AC  22317.55265307 -.00005234  00000-0 -31090-3 0  9999,2 51130  53.2165 340.6277 0003256  34.5606 325.5597 15.08844562 46855,6917.866,95.437,541.984,537.479,0.0
51130.0,STARLINK-3395,PAYLOAD,2022-11-14 11:31:12,15.08849557,0.0002973,53.2163,336.4648,34.9546,325.1641,2.7256e-05,1.45e-06,0.0,0 STARLINK-3395,1 51130U 22005AC  22318.48001049  .00000145  00000-0  27256-4 0  9997,2 51130  53.2163 336.4648 0002973  34.9546 325.1641 15.08849557 45876,6917.851,95.437,541.773,537.66,0.0
51130.0,STARLINK-3395,PAYLOAD,2022-11-14 17:52:45,15.08837788,0.0003005,53.2162,335.276,34.9492,325.1697,-0.0001215,-2.222e-05,0.0,0 STARLINK-3395,1 51130U 22005AC  22318.74497508 -.00002222  00000-0 -12150-3 0  9991,2 51130  53.2162 335.2760 0003005  34.9492 325.1697 15.08837788 47038,6917.887,95.438,541.831,537.673,0.0
51130.0,STARLINK-3395,PAYLOAD,2022-11-15 11:22:00,15.08835309,0.0002984,53.2162,332.0042,35.2798,324.8391,1.2885e-05,-8.4e-07,0.0,0 STARLINK-3395,1 51130U 22005AC  22319.47361619 -.00000084  00000-0  12885-4 0  9994,2 51130  53.2162 332.0042 0002984  35.2798 324.8391 15.08835309 46026,6917.895,95.438,541.8240000000002,537.695,0.0
51130.0,STARLINK-3395,PAYLOAD,2022-11-16 11:12:47,15.08836383,0.0003019,53.2164,327.5456,34.5581,325.5607,-1.5179000000000008e-05,-5.3e-06,0.0,0 STARLINK-3395,1 51130U 22005AC  22320.46721624 -.00000530  00000-0 -15179-4 0  9997,2 51130  53.2164 327.5456 0003019  34.5581 325.5607 15.08836383 47299,6917.891,95.438,541.845,537.668,0.0
51130.0,STARLINK-3395,PAYLOAD,2022-11-16 12:48:10,15.08838142,0.0003019,53.216,327.2475,34.7219,325.397,2.2756e-05,7.4e-07,0.0,0 STARLINK-3395,1 51130U 22005AC  22320.53345646  .00000074  00000-0  22756-4 0  9991,2 51130  53.2160 327.2475 0003019  34.7219 325.3970 15.08838142 46186,6917.886,95.438,541.84,537.663,0.0
51130.0,STARLINK-3395,PAYLOAD,2022-11-16 17:34:19,15.08839683,0.0003053,53.2163,326.3547,34.7,325.4191,6.2449e-05,7.05e-06,0.0,0 STARLINK-3395,1 51130U 22005AC  22320.73217512  .00000705  00000-0  62449-4 0  9997,2 51130  53.2163 326.3547 0003053  34.7000 325.4191 15.08839683 46216,6917.880999999999,95.438,541.8580000000002,537.634,0.0
51130.0,STARLINK-3395,PAYLOAD,2022-11-17 09:28:10,15.08851504,0.0003101,53.216,323.381,35.91,324.21,0.00028119,4.191e-05,0.0,0 STARLINK-3395,1 51130U 22005AC  22321.39456834  .00004191  00000-0  28119-3 0  9990,2 51130  53.2160 323.3810 0003101  35.9100 324.2100 15.08851504 47439,6917.845,95.437,541.855,537.565,0.0
51130.0,STARLINK-3395,PAYLOAD,2022-11-17 12:38:57,15.08842245,0.0003398,53.2161,322.7875,32.1606,327.9593,0.00021812,3.185e-05,0.0,0 STARLINK-3395,1 51130U 22005AC  22321.52705295  .00003185  00000-0  21812-3 0  9998,2 51130  53.2161 322.7875 0003398  32.1606 327.9593 15.08842245 46338,6917.874,95.437,542.089,537.388,0.0
51130.0,STARLINK-3395,PAYLOAD,2022-11-17 17:25:06,15.08840683,0.0003032,53.2158,321.894,35.0018,325.1173,7.1187e-05,8.45e-06,0.0,0 STARLINK-3395,1 51130U 22005AC  22321.72577389  .00000845  00000-0  71187-4 0  9992,2 51130  53.2158 321.8940 0003032  35.0018 325.1173 15.08840683 47486,6917.878000000002,95.438,541.841,537.646,0.0
51130.0,STARLINK-3395,PAYLOAD,2022-11-18 09:18:57,15.08843309,0.0002655,53.2159,318.9202,32.8402,327.2755,8.717100000000001e-05,1.099e-05,0.0,0 STARLINK-3395,1 51130U 22005AC  22322.38817090  .00001099  00000-0  87171-4 0  9993,2 51130  53.2159 318.9202 0002655  32.8402 327.2755 15.08843309 46461,6917.87,95.437,541.572,537.899,0.0
51130.0,STARLINK-3395,PAYLOAD,2022-11-18 17:15:53,15.08839577,0.0002861,53.2157,317.4336,33.1538,326.9633,8.8055e-05,1.113e-05,0.0,0 STARLINK-3395,1 51130U 22005AC  22322.71937445  .00001113  00000-0  88055-4 0  9996,2 51130  53.2157 317.4336 0002861  33.1538 326.9633 15.08839577 46513,6917.882,95.438,541.726,537.7669999999998,0.0
51130.0,STARLINK-3395,PAYLOAD,2022-11-18 23:37:26,15.08842561,0.0002861,53.2156,316.2442,32.7322,327.3847,0.00012496,1.701e-05,0.0,0 STARLINK-3395,1 51130U 22005AC  22322.98433311  .00001701  00000-0  12496-3 0  9996,2 51130  53.2156 316.2442 0002861  32.7322 327.3847 15.08842561 47670,6917.873000000001,95.437,541.717,537.758,0.0
51130.0,STARLINK-3395,PAYLOAD,2022-11-19 09:09:44,15.08852491,0.0003155,53.2155,314.4599,37.3194,322.8017,0.00069323,0.00010766,0.0,0 STARLINK-3395,1 51130U 22005AC  22323.38177061  .00010766  00000-0  69323-3 0  9990,2 51130  53.2155 314.4599 0003155  37.3194 322.8017 15.08852491 46612,6917.842,95.437,541.89,537.525,0.0
51130.0,STARLINK-3395,PAYLOAD,2022-11-19 10:45:08,15.08852144,0.0003073,53.2152,314.1627,34.7202,325.399,0.00069776,0.00010838,0.0,0 STARLINK-3395,1 51130U 22005AC  22323.44800986  .00010838  00000-0  69776-3 0  9998,2 51130  53.2152 314.1627 0003073  34.7202 325.3990 15.08852144 47746,6917.843000000003,95.437,541.8340000000002,537.582,0.0
51130.0,STARLINK-3395,PAYLOAD,2022-11-20 04:14:22,15.08850466,0.0003064,53.2157,310.8912,37.9267,322.194,0.00031379,4.711e-05,0.0,0 STARLINK-3395,1 51130U 22005AC  22324.17664938  .00004711  00000-0  31379-3 0  9995,2 51130  53.2157 310.8912 0003064  37.9267 322.1940 15.08850466 47854,6917.848000000001,95.437,541.8330000000002,537.594,0.0
51130.0,STARLINK-3395,PAYLOAD,2022-11-20 09:00:32,15.08840778,0.0003128,53.2157,310.0002,36.4324,323.688,8.0158e-05,9.87e-06,0.0,0 STARLINK-3395,1 51130U 22005AC  22324.37537189  .00000987  00000-0  80158-4 0  9995,2 51130  53.2157 310.0002 0003128  36.4324 323.6880 15.08840778 47882,6917.878000000002,95.438,541.9069999999998,537.5790000000002,0.0
51130.0,STARLINK-3395,PAYLOAD,2022-11-20 10:35:55,15.08837736,0.0003159,53.2161,309.7021,35.968,324.1525,-1.6279e-06,-3.15e-06,0.0,0 STARLINK-3395,1 51130U 22005AC  22324.44161292 -.00000315  00000-0 -16279-5 0  9992,2 51130  53.2161 309.7021 0003159  35.9680 324.1525 15.08837736 46775,6917.887,95.438,541.938,537.567,0.0
51130.0,STARLINK-3395,PAYLOAD,2022-11-21 05:40:33,15.08834396,0.0003024,53.2155,306.1324,36.0799,324.0396,-4.349600000000001e-05,-9.81e-06,0.0,0 STARLINK-3395,1 51130U 22005AC  22325.23649619 -.00000981  00000-0 -43496-4 0  9993,2 51130  53.2155 306.1324 0003024  36.0799 324.0396 15.08834396 48012,6917.898,95.438,541.854,537.6709999999998,0.0
51130.0,STARLINK-3395,PAYLOAD,2022-11-21 10:26:42,15.08838199,0.0003023,53.2166,305.2408,37.1909,322.9292,-2.8411e-06,-3.34e-06,0.0,0 STARLINK-3395,1 51130U 22005AC  22325.43521696 -.00000334  00000-0 -28411-5 0  9992,2 51130  53.2166 305.2408 0003023  37.1909 322.9292 15.08838199 46926,6917.886,95.438,541.842,537.66,0.0
51130.0,STARLINK-3395,PAYLOAD,2022-11-22 03:55:56,15.08846896,0.0003011,53.2161,301.9692,39.3803,320.7407,0.00014064,1.951e-05,0.0,0 STARLINK-3395,1 51130U 22005AC  22326.16385022  .00001951  00000-0  14064-3 0  9995,2 51130  53.2161 301.9692 0003011  39.3803 320.7407 15.08846896 48157,6917.859,95.437,541.807,537.641,0.0
51130.0,STARLINK-3395,PAYLOAD,2022-11-22 08:42:06,15.08832891,0.0003099,53.216,301.0772,36.6882,323.4322,1.8558e-05,7e-08,0.0,0 STARLINK-3395,1 51130U 22005AC  22326.36257766  .00000007  00000-0  18558-4 0  9994,2 51130  53.2160 301.0772 0003099  36.6882 323.4322 15.08832891 48188,6917.901999999999,95.438,541.911,537.623,0.0
51130.0,STARLINK-3395,PAYLOAD,2022-11-22 10:17:29,15.08837067,0.0002948,53.2155,300.7807,32.6371,327.4803,-6.6989e-06,-3.95e-06,0.0,0 STARLINK-3395,1 51130U 22005AC  22326.42881485 -.00000395  00000-0 -66989-5 0  9996,2 51130  53.2155 300.7807 0002948  32.6371 327.4803 15.08837067 47073,6917.889,95.438,541.794,537.715,0.0
51130.0,STARLINK-3395,PAYLOAD,2022-11-23 05:22:07,15.08846268,0.0002971,53.2159,297.2115,37.9111,322.209,0.00027271,4.055e-05,0.0,0 STARLINK-3395,1 51130U 22005AC  22327.22369264  .00004055  00000-0  27271-3 0  9995,2 51130  53.2159 297.2115 0002971  37.9111 322.2090 15.08846268 48317,6917.861,95.437,541.7819999999998,537.6709999999998,0.0
